1 1
RapidEye1 0                  
1 33314U 08040C   25019.64834203  .00003890  00000-0  30932-3 0  9993
2 33314  97.4748  63.3164 0026290 131.9660 228.3811 15.00717199888563